ONEWEB-0291             
1 49081U 21075G   25018.24011353  .00000123  00000+0  28290-3 0  9991
2 49081  87.9092 108.4565 0002035 102.7146 257.4213 13.17648151166788
ONEWEB-0293             
1 49082U 21075H   25017.80980176  .00000058  00000+0  11529-3 0  9995
2 49082  87.9095 108.5665 0001940 108.4321 251.7021 13.17646573165763
ONEWEB-0294             
1 49083U 21075J   25017.73747509  .00000410  00000+0  11052-2 0  9991
2 49083  87.8861  93.2959 0002408 107.5721 252.5671 13.12440604166969
ONEWEB-0295             
1 49084U 21075K   25017.73301897 -.00000009  00000+0 -56504-4 0  9997
2 49084  87.9097 108.5616 0002075  96.6184 263.5184 13.17649921165714
ONEWEB-0296             
1 49085U 21075L   25017.71801428  .00000225  00000+0  58986-3 0  9994
2 49085  87.8864  93.3048 0002479  97.2909 262.8501 13.12442719166960
ONEWEB-0297             
1 49086U 21075M   25018.43495864  .00000241  00000+0  63558-3 0  9997
2 49086  87.8872  93.1851 0001783 101.4937 258.6391 13.12442321168653
ONEWEB-0298             
1 49087U 21075N   25017.73737361 -.00000004  00000+0 -44566-4 0  9999
2 49087  87.9095 108.5778 0001766  97.2737 262.8595 13.17646224165745
ONEWEB-0299             
1 49088U 21075P   25017.73892717  .00000020  00000+0  17583-4 0  9992
2 49088  87.9089 108.5375 0001760  96.9354 263.1978 13.17646815165720
